{
  "norad_id": 65775,
  "name": "KUIPER-00156",
  "history": [
    {
      "epoch": "2026-03-28T20:19:34.288032Z",
      "apogee_km": 629.7402017201239,
      "perigee_km": 629.3551995226717,
      "latitude_deg": 3.0782619151729694e-05,
      "longitude_deg": 169.7663542897149,
      "height_km": 630.2418326776833,
      "semi_major_axis_km": 7007.6847006213975,
      "eccentricity": 2.747e-05,
      "inclination_deg": 51.9039,
      "raan_deg": 300.9207,
      "arg_perigee_deg": 74.1165,
      "mean_anomaly_deg": 285.9828,
      "mean_motion_rev_day": 14.79929176
    },
    {
      "epoch": "2026-03-29T23:52:36.441408Z",
      "apogee_km": 629.8824388960356,
      "perigee_km": 628.5706604395373,
      "latitude_deg": -3.296036616417691e-05,
      "longitude_deg": 110.29916977088381,
      "height_km": 630.1758325765604,
      "semi_major_axis_km": 7007.363549667786,
      "eccentricity": 9.36e-05,
      "inclination_deg": 51.9037,
      "raan_deg": 295.844,
      "arg_perigee_deg": 108.0514,
      "mean_anomaly_deg": 252.055,
      "mean_motion_rev_day": 14.80030916
    },
    {
      "epoch": "2026-03-30T06:21:32.604480Z",
      "apogee_km": 629.7824527375988,
      "perigee_km": 628.58476149943,
      "latitude_deg": 3.154611276641407e-05,
      "longitude_deg": 11.603790312668439,
      "height_km": 630.1135698456488,
      "semi_major_axis_km": 7007.320607118514,
      "eccentricity": 8.546e-05,
      "inclination_deg": 51.9016,
      "raan_deg": 294.6488,
      "arg_perigee_deg": 107.8989,
      "mean_anomaly_deg": 252.2067,
      "mean_motion_rev_day": 14.80044521
    },
    {
      "epoch": "2026-03-30T14:27:42.741792Z",
      "apogee_km": 629.8909455509611,
      "perigee_km": 628.4013373007574,
      "latitude_deg": 4.547020146307051e-05,
      "longitude_deg": -111.763208062401,
      "height_km": 630.1183437707463,
      "semi_major_axis_km": 7007.283141425859,
      "eccentricity": 0.00010629,
      "inclination_deg": 51.9,
      "raan_deg": 293.1568,
      "arg_perigee_deg": 107.722,
      "mean_anomaly_deg": 252.3859,
      "mean_motion_rev_day": 14.80056391
    },
    {
      "epoch": "2026-03-30T19:19:24.991968Z",
      "apogee_km": 629.8816071542733,
      "perigee_km": 628.3985870294446,
      "latitude_deg": -7.796708680583036e-06,
      "longitude_deg": 174.215043822521,
      "height_km": 630.0642583563576,
      "semi_major_axis_km": 7007.277097091859,
      "eccentricity": 0.00010582,
      "inclination_deg": 51.9009,
      "raan_deg": 292.2608,
      "arg_perigee_deg": 103.9365,
      "mean_anomaly_deg": 256.1715,
      "mean_motion_rev_day": 14.80058306
    },
    {
      "epoch": "2026-03-31T06:40:03.114048Z",
      "apogee_km": 629.8769737079101,
      "perigee_km": 628.3507944653556,
      "latitude_deg": 5.1140617984251644e-08,
      "longitude_deg": 1.4992302025269508,
      "height_km": 630.0781460853681,
      "semi_major_axis_km": 7007.250884086632,
      "eccentricity": 0.0001089,
      "inclination_deg": 51.9022,
      "raan_deg": 290.1697,
      "arg_perigee_deg": 106.6445,
      "mean_anomaly_deg": 253.4637,
      "mean_motion_rev_day": 14.80066611
    },
    {
      "epoch": "2026-04-01T19:56:28.743072Z",
      "apogee_km": 630.0342366072273,
      "perigee_km": 628.4169373221548,
      "latitude_deg": -4.7338495319823073e-05,
      "longitude_deg": 153.99122769565366,
      "height_km": 629.9745770247805,
      "semi_major_axis_km": 7007.36258696469,
      "eccentricity": 0.0001154,
      "inclination_deg": 51.9015,
      "raan_deg": 283.2993,
      "arg_perigee_deg": 90.2495,
      "mean_anomaly_deg": 269.8599,
      "mean_motion_rev_day": 14.80031221
    }
  ]
}